[
    {
        "Altitude(m)": 624792.7827542613,
        "Argument of Periapsis(deg)": 0.0,
        "Eccentricity": 0.0,
        "Inclination(deg)": 60.0,
        "Latitude(deg)": -59.14711995657146,
        "Longitude(deg)": -155.97376931531102,
        "Mean Anomaly(deg)": 261.8182,
        "RAAN(deg)": 50.0,
        "Satellite Name": "Test1 236",
        "Satellite Number": 236,
        "Semi-Major Axis(m)": 6980739.136638005,
        "Time(s)": 0
    },
    {
        "Altitude(m)": 624842.1754263375,
        "Argument of Periapsis(deg)": 0.00010418945913296404,
        "Eccentricity": 0.0,
        "Inclination(deg)": 60.0,
        "Latitude(deg)": -59.289205571958185,
        "Longitude(deg)": -154.8442651165522,
        "Mean Anomaly(deg)": 262.43830614546187,
        "RAAN(deg)": 49.99957995086026,
        "Satellite Name": "Test1 236",
        "Satellite Number": 236,
        "Semi-Major Axis(m)": 6980739.136638005,
        "Time(s)": 10
    }
]